[{"OBJECT_NAME":"TIANQI-39","OBJECT_ID":"2026-010C","EPOCH":"2026-03-08T16:50:36.580128","MEAN_MOTION":14.04334884,"ECCENTRICITY":0.00155129,"INCLINATION":44.9813,"RA_OF_ASC_NODE":168.7554,"ARG_OF_PERICENTER":221.5775,"MEAN_ANOMALY":138.3881,"EPHEMERIS_TYPE":0,"CLASSIFICATION_TYPE":"U","NORAD_CAT_ID":67478,"ELEMENT_SET_NO":999,"REV_AT_EPOCH":732,"BSTAR":0.00014701681,"MEAN_MOTION_DOT":1.06e-6,"MEAN_MOTION_DDOT":0},{"OBJECT_NAME":"SL-16 DEB","OBJECT_ID":"1995-058C","EPOCH":"2026-03-09T22:28:17.000832","MEAN_MOTION":13.74408553,"ECCENTRICITY":0.01993431,"INCLINATION":70.9979,"RA_OF_ASC_NODE":269.9435,"ARG_OF_PERICENTER":185.0884,"MEAN_ANOMALY":299.3345,"EPHEMERIS_TYPE":0,"CLASSIFICATION_TYPE":"U","NORAD_CAT_ID":23706,"ELEMENT_SET_NO":999,"REV_AT_EPOCH":52168,"BSTAR":0.00016225109,"MEAN_MOTION_DOT":1.34e-6,"MEAN_MOTION_DDOT":0}]
